SATELIOT_4              
1 60537U 24149BX  26157.13940983  .00002464  00000+0  22124-3 0  9998
2 60537  97.6727 231.8321 0003315  84.1371 276.0228 14.96626041 98325
PICO-02A021             
1 60538U 24149BY  26157.18294943  .00006790  00000+0  50696-3 0  9993
2 60538  97.6721 236.1111 0005748  59.7060 300.4733 15.03138149 98082
ICEYE-X43               
1 60539U 24149BZ  26157.15217129  .00005171  00000+0  42393-3 0  9999
2 60539  97.6739 234.2711 0007955 115.0956 245.1093 14.99660196 98461
HAWK-10A                
1 60540U 24149CA  26157.47133726  .00001902  00000+0  17260-3 0  9999
2 60540  97.6882 233.5669 0004669 105.0487 255.1252 14.96476681 98383
UMBRA-09                
1 60541U 24149CB  26157.19017376  .00020242  00000+0  10061-2 0  9990
2 60541  97.6965 244.2122 0000449 341.8427  18.2790 15.17682855 99051
QPS-SAR-8 (AMATERU-IV)  
1 60542U 24149CC  26157.48278290  .00006930  00000+0  50529-3 0  9999
2 60542  97.6668 236.7232 0004705 130.9091 229.2543 15.04033326 98668
ARCTIC WEATHER SATELLITE
1 60543U 24149CD  26157.47450765  .00001069  00000+0  11702-3 0  9996
2 60543  97.6801 228.2460 0003346 124.4206 235.7328 14.89813761 97701
CAPELLA-15 (ACADIA-5)   
1 60544U 24149CE  26157.46080642  .00008919  00000+0  87546-3 0  9999
2 60544  97.6758 230.6316 0005010 110.5654 249.6104 14.92408173 98251
HAWK-10B                
1 60545U 24149CF  26157.47118587  .00001955  00000+0  17718-3 0  9998
2 60545  97.6803 232.9329 0006476 122.8416 237.3430 14.96477859 98382
ICEYE-X39               
1 60546U 24149CG  26157.46938568  .00004059  00000+0  33249-3 0  9992
2 60546  97.6762 234.6405 0004173 145.5914 214.5581 14.99832186 98518
UMBRA-10                
1 60547U 24149CH  26157.51933274  .00022633  00000+0  11230-2 0  9991
2 60547  97.6970 244.5722 0001197  71.2885 288.8478 15.17720423 99114
ICEYE-X33               
1 60548U 24149CJ  26157.16884035  .00004902  00000+0  38991-3 0  9996
2 60548  97.7262 236.3771 0001996 131.4389 228.7006 15.00880376 98551
ICEYE-X40               
1 60549U 24149CK  26157.54764334  .00001528  00000+0  13466-3 0  9999
2 60549  97.6801 234.2147 0006053 112.0364 248.1502 14.97901193 98486
SATELIOT_1              
1 60550U 24149CL  26157.47291644  .00002523  00000+0  21842-3 0  9995
2 60550  97.6736 233.5498 0007653 110.4280 249.7765 14.98020406 98468
BRO-14                  
1 60551U 24149CM  26157.42779851  .00001538  00000+0  14163-3 0  9995
2 60551  97.6876 233.3986 0008098 126.2542 233.9429 14.96153699 98386
SATELIOT_3              
1 60552U 24149CN  26157.44862574  .00002141  00000+0  18613-3 0  9998
2 60552  97.6829 234.3075 0006489 110.8082 249.3836 14.98020339 98474
BRO-15                  
1 60553U 24149CP  26157.14252649  .00001123  00000+0  10485-3 0  9990
2 60553  97.6812 232.7296 0009202 121.7545 238.4574 14.96108421 98357
UM5-RIBAT               
1 60554U 24149CQ  26157.47296016  .00003855  00000+0  30646-3 0  9998
2 60554  97.6637 235.4180 0003866  78.5347 281.6311 15.01016068 98580
UM5-EOSAT               
1 60555U 24149CR  26157.17591517  .00005065  00000+0  39652-3 0  9991
2 60555  97.6672 236.0452 0008476 147.1668 213.0084 15.01443983 98564
LASARSAT                
1 62391U 24247Q   26154.92379714  .00036882  00000+0  75515-3 0  9992
2 62391  44.9754 336.7002 0008047 258.6055 101.3931 15.45494859 81266
CROCUBE                 
1 62394U 24247T   26157.51961437  .00048242  00000+0  91869-3 0  9995
2 62394  44.9729 319.6326 0008120 275.1137  84.8826 15.47487318 81696
TEVEL2-4                
1 63213U 25052D   26156.96547016  .00026125  00000+0  78941-3 0  9994
2 63213  97.3920  53.3411 0004284 125.1509 235.0135 15.34208415 68393
TEVEL2-5                
1 63214U 25052E   26157.44133364  .00024190  00000+0  73469-3 0  9996
2 63214  97.3910  53.7683 0004295 125.4892 234.6752 15.34062158 68468
TEVEL2-6                
1 63215U 25052F   26157.45341113  .00024595  00000+0  74779-3 0  9995
2 63215  97.3913  53.7648 0004376 125.1583 235.0071 15.34024635 68464
TEVEL2-1                
1 63217U 25052H   26156.43470878  .00016797  00000+0  52119-3 0  9994
2 63217  97.3883  52.3839 0004005 136.2880 223.8680 15.33457579 68299
TEVEL2-3                
1 63218U 25052J   26156.95177655  .00025388  00000+0  78364-3 0  9995
2 63218  97.3885  52.9211 0004224 137.0459 223.1114 15.33537694 68377
TEVEL2-2                
1 63219U 25052K   26156.95711226  .00023721  00000+0  73356-3 0  9999
2 63219  97.3886  52.9080 0004028 136.8186 223.3373 15.33493507 68372
TEVEL2-9                
1 63237U 25052AD  26157.44282299  .00022342  00000+0  73371-3 0  9992
2 63237  97.3947  52.7914 0006696 161.4993 198.6493 15.31566572 68386
TEVEL2-7                
1 63238U 25052AE  26156.43613090  .00014789  00000+0  49200-3 0  9998
2 63238  97.3949  51.7085 0006680 165.6962 194.4470 15.31236048 68226
TEVEL2-8                
1 63239U 25052AF  26155.66005754  .00017961  00000+0  59749-3 0  9999
2 63239  97.3951  50.9120 0006563 168.5625 191.5767 15.31195553 68108
