OBJECT_NAME,OBJECT_ID,EPOCH,MEAN_MOTION,ECCENTRICITY,INCLINATION,RA_OF_ASC_NODE,ARG_OF_PERICENTER,MEAN_ANOMALY,EPHEMERIS_TYPE,CLASSIFICATION_TYPE,NORAD_CAT_ID,ELEMENT_SET_NO,REV_AT_EPOCH,BSTAR,MEAN_MOTION_DOT,MEAN_MOTION_DDOT
SATELIOT_4,2024-149BX,2026-06-06T03:20:45.009312,14.96626041,.0003315,97.6727,231.8321,84.1371,276.0228,0,U,60537,999,9832,.22123985E-3,.2464E-4,0
PICO-02A021,2024-149BY,2026-06-06T04:23:26.830752,15.03138149,.00057489,97.6721,236.1111,59.7060,300.4733,0,U,60538,999,9808,.50695698E-3,.679E-4,0
ICEYE-X43,2024-149BZ,2026-06-06T03:39:07.599456,14.99660196,.00079557,97.6739,234.2711,115.0956,245.1093,0,U,60539,999,9846,.42392887E-3,.5171E-4,0
HAWK-10A,2024-149CA,2026-06-06T11:18:43.539264,14.96476681,.00046698,97.6882,233.5669,105.0487,255.1252,0,U,60540,999,9838,.17259756E-3,.1902E-4,0
UMBRA-09,2024-149CB,2026-06-06T04:33:51.012864,15.17682855,.00004496,97.6965,244.2122,341.8427,18.2790,0,U,60541,999,9905,.100608E-2,.20242E-3,0
QPS-SAR-8 (AMATERU-IV),2024-149CC,2026-06-06T11:35:12.442560,15.04033326,.00047053,97.6668,236.7232,130.9091,229.2543,0,U,60542,999,9866,.50528742E-3,.693E-4,0
ARCTIC WEATHER SATELLITE,2024-149CD,2026-06-06T11:23:17.460960,14.89813761,.00033462,97.6801,228.2460,124.4206,235.7328,0,U,60543,999,9770,.11701725E-3,.1069E-4,0
CAPELLA-15 (ACADIA-5),2024-149CE,2026-06-06T11:03:33.674688,14.92408173,.00050104,97.6758,230.6316,110.5654,249.6104,0,U,60544,999,9825,.87546106E-3,.8919E-4,0
HAWK-10B,2024-149CF,2026-06-06T11:18:30.459168,14.96477859,.00064761,97.6803,232.9329,122.8416,237.3430,0,U,60545,999,9838,.17717719E-3,.1955E-4,0
ICEYE-X39,2024-149CG,2026-06-06T11:15:54.922752,14.99832186,.00041738,97.6762,234.6405,145.5914,214.5581,0,U,60546,999,9851,.33248616E-3,.4059E-4,0
UMBRA-10,2024-149CH,2026-06-06T12:27:50.348736,15.17720423,.00011978,97.6970,244.5722,71.2885,288.8478,0,U,60547,999,9911,.11229535E-2,.22633E-3,0
ICEYE-X33,2024-149CJ,2026-06-06T04:03:07.806240,15.00880376,.0001996,97.7262,236.3771,131.4389,228.7006,0,U,60548,999,9855,.38991E-3,.4902E-4,0
ICEYE-X40,2024-149CK,2026-06-06T13:08:36.384576,14.97901193,.00060534,97.6801,234.2147,112.0364,248.1502,0,U,60549,999,9848,.13465798E-3,.1528E-4,0
SATELIOT_1,2024-149CL,2026-06-06T11:20:59.980416,14.98020406,.0007653,97.6736,233.5498,110.4280,249.7765,0,U,60550,999,9846,.21841599E-3,.2523E-4,0
BRO-14,2024-149CM,2026-06-06T10:16:01.791264,14.96153699,.00080981,97.6876,233.3986,126.2542,233.9429,0,U,60551,999,9838,.14162761E-3,.1538E-4,0
SATELIOT_3,2024-149CN,2026-06-06T10:46:01.263936,14.98020339,.00064894,97.6829,234.3075,110.8082,249.3836,0,U,60552,999,9847,.18613387E-3,.2141E-4,0
BRO-15,2024-149CP,2026-06-06T03:25:14.288736,14.96108421,.00092025,97.6812,232.7296,121.7545,238.4574,0,U,60553,999,9835,.10485383E-3,.1123E-4,0
UM5-RIBAT,2024-149CQ,2026-06-06T11:21:03.757824,15.01016068,.00038661,97.6637,235.4180,78.5347,281.6311,0,U,60554,999,9858,.30646302E-3,.3855E-4,0
UM5-EOSAT,2024-149CR,2026-06-06T04:13:19.070688,15.01443983,.00084762,97.6672,236.0452,147.1668,213.0084,0,U,60555,999,9856,.39652157E-3,.5065E-4,0
LASARSAT,2024-247Q,2026-06-03T22:10:16.072896,15.45494859,.00080478,44.9754,336.7002,258.6055,101.3931,0,U,62391,999,8126,.75515127E-3,.36882E-3,0
CROCUBE,2024-247T,2026-06-06T12:28:14.681568,15.47487318,.00081203,44.9729,319.6326,275.1137,84.8826,0,U,62394,999,8169,.9186902E-3,.48242E-3,0
TEVEL2-4,2025-052D,2026-06-05T23:10:16.621824,15.34208415,.00042844,97.3920,53.3411,125.1509,235.0135,0,U,63213,999,6839,.78941234E-3,.26125E-3,0
TEVEL2-5,2025-052E,2026-06-06T10:35:31.226496,15.34062158,.00042956,97.3910,53.7683,125.4892,234.6752,0,U,63214,999,6846,.73468546E-3,.2419E-3,0
TEVEL2-6,2025-052F,2026-06-06T10:52:54.721632,15.34024635,.00043765,97.3913,53.7648,125.1583,235.0071,0,U,63215,999,6846,.74778507E-3,.24595E-3,0
TEVEL2-1,2025-052H,2026-06-05T10:25:58.838592,15.33457579,.00040057,97.3883,52.3839,136.2880,223.8680,0,U,63217,999,6829,.52119055E-3,.16797E-3,0
TEVEL2-3,2025-052J,2026-06-05T22:50:33.493920,15.33537694,.00042248,97.3885,52.9211,137.0459,223.1114,0,U,63218,999,6837,.78363705E-3,.25388E-3,0
TEVEL2-2,2025-052K,2026-06-05T22:58:14.499264,15.33493507,.00040281,97.3886,52.9080,136.8186,223.3373,0,U,63219,999,6837,.73355797E-3,.23721E-3,0
TEVEL2-9,2025-052AD,2026-06-06T10:37:39.906336,15.31566572,.0006696,97.3947,52.7914,161.4993,198.6493,0,U,63237,999,6838,.73371453E-3,.22342E-3,0
TEVEL2-7,2025-052AE,2026-06-05T10:28:01.709760,15.31236048,.00066809,97.3949,51.7085,165.6962,194.4470,0,U,63238,999,6822,.49200242E-3,.14789E-3,0
TEVEL2-8,2025-052AF,2026-06-04T15:50:28.971456,15.31195553,.00065639,97.3951,50.9120,168.5625,191.5767,0,U,63239,999,6810,.59749177E-3,.17961E-3,0
